{
  "type": "FeatureCollection",
  "features": [
    {
      "type": "Feature",
      "properties": {
        "norad_id": 66424,
        "name": "STARLINK-35588",
        "group": "last-30-days",
        "lat": 13.696936939613716,
        "lon": 97.52102418332657,
        "alt_km": 442.37367796338094,
        "timestamp": "2025-12-06T18:50:08.954536+00:00",
        "meta_object_name": "STARLINK-35588",
        "meta_object_id": "2025-259C",
        "meta_epoch": "2025-12-06T08:00:01.999872",
        "meta_mean_motion": 15.40698264,
        "meta_eccentricity": 0.00013984,
        "meta_inclination": 43.0005,
        "meta_ra_of_asc_node": 84.962,
        "meta_arg_of_pericenter": 261.5988,
        "meta_mean_anomaly": 131.7555,
        "meta_ephemeris_type": 0,
        "meta_classification_type": "U",
        "meta_norad_cat_id": 66424,
        "meta_element_set_no": 999,
        "meta_rev_at_epoch": 525,
        "meta_bstar": -0.00076921132,
        "meta_mean_motion_dot": -0.00032297,
        "meta_mean_motion_ddot": 0,
        "tle_line1": "1 66424U 25259C   25340.33335648 -.00032297  00000+0 -76921-3 0  9996",
        "tle_line2": "2 66424  43.0005  84.9620 0001398 261.5988 131.7555 15.40698264  5259"
      },
      "geometry": {
        "type": "Point",
        "coordinates": [
          97.52102418332657,
          13.696936939613716
        ]
      }
    },
    {
      "type": "Feature",
      "properties": {
        "norad_id": 66425,
        "name": "STARLINK-35555",
        "group": "last-30-days",
        "lat": 21.65248288442809,
        "lon": 107.54363944400923,
        "alt_km": 441.1134122484864,
        "timestamp": "2025-12-06T18:50:08.954546+00:00",
        "meta_object_name": "STARLINK-35555",
        "meta_object_id": "2025-259D",
        "meta_epoch": "2025-12-06T08:00:01.999872",
        "meta_mean_motion": 15.40638275,
        "meta_eccentricity": 0.00017913,
        "meta_inclination": 43.0005,
        "meta_ra_of_asc_node": 84.931,
        "meta_arg_of_pericenter": 276.0365,
        "meta_mean_anomaly": 129.773,
        "meta_ephemeris_type": 0,
        "meta_classification_type": "U",
        "meta_norad_cat_id": 66425,
        "meta_element_set_no": 999,
        "meta_rev_at_epoch": 525,
        "meta_bstar": 0.0015913536,
        "meta_mean_motion_dot": 0.00066618,
        "meta_mean_motion_ddot": 0,
        "tle_line1": "1 66425U 25259D   25340.33335648  .00066618  00000+0  15914-2 0  9993",
        "tle_line2": "2 66425  43.0005  84.9310 0001791 276.0365 129.7730 15.40638275  5251"
      },
      "geometry": {
        "type": "Point",
        "coordinates": [
          107.54363944400923,
          21.65248288442809
        ]
      }
    },
    {
      "type": "Feature",
      "properties": {
        "norad_id": 66426,
        "name": "STARLINK-35589",
        "group": "last-30-days",
        "lat": 28.934946996546536,
        "lon": 118.68655025401277,
        "alt_km": 440.428334942535,
        "timestamp": "2025-12-06T18:50:08.954556+00:00",
        "meta_object_name": "STARLINK-35589",
        "meta_object_id": "2025-259E",
        "meta_epoch": "2025-12-06T08:00:01.999872",
        "meta_mean_motion": 15.40703819,
        "meta_eccentricity": 0.00015473,
        "meta_inclination": 43.0005,
        "meta_ra_of_asc_node": 84.9012,
        "meta_arg_of_pericenter": 259.0478,
        "meta_mean_anomaly": 159.1808,
        "meta_ephemeris_type": 0,
        "meta_classification_type": "U",
        "meta_norad_cat_id": 66426,
        "meta_element_set_no": 999,
        "meta_rev_at_epoch": 525,
        "meta_bstar": -0.0012916296,
        "meta_mean_motion_dot": -0.00053886,
        "meta_mean_motion_ddot": 0,
        "tle_line1": "1 66426U 25259E   25340.33335648 -.00053886  00000+0 -12916-2 0  9998",
        "tle_line2": "2 66426  43.0005  84.9012 0001547 259.0478 159.1808 15.40703819  5256"
      },
      "geometry": {
        "type": "Point",
        "coordinates": [
          118.68655025401277,
          28.934946996546536
        ]
      }
    },
    {
      "type": "Feature",
      "properties": {
        "norad_id": 66427,
        "name": "STARLINK-35611",
        "group": "last-30-days",
        "lat": 35.1421096495258,
        "lon": 131.32568385830743,
        "alt_km": 440.133602994596,
        "timestamp": "2025-12-06T18:50:08.954566+00:00",
        "meta_object_name": "STARLINK-35611",
        "meta_object_id": "2025-259F",
        "meta_epoch": "2025-12-06T08:00:01.999872",
        "meta_mean_motion": 15.4099066,
        "meta_eccentricity": 0.00017971,
        "meta_inclination": 43.0009,
        "meta_ra_of_asc_node": 84.8708,
        "meta_arg_of_pericenter": 283.5733,
        "meta_mean_anomaly": 146.9857,
        "meta_ephemeris_type": 0,
        "meta_classification_type": "U",
        "meta_norad_cat_id": 66427,
        "meta_element_set_no": 999,
        "meta_rev_at_epoch": 525,
        "meta_bstar": -0.015184757,
        "meta_mean_motion_dot": -0.00593345,
        "meta_mean_motion_ddot": 0,
        "tle_line1": "1 66427U 25259F   25340.33335648 -.00593345  00000+0 -15185-1 0  9998",
        "tle_line2": "2 66427  43.0009  84.8708 0001797 283.5733 146.9857 15.40990660  5255"
      },
      "geometry": {
        "type": "Point",
        "coordinates": [
          131.32568385830743,
          35.1421096495258
        ]
      }
    },
    {
      "type": "Feature",
      "properties": {
        "norad_id": 66428,
        "name": "STARLINK-35610",
        "group": "last-30-days",
        "lat": 39.88844303011527,
        "lon": 145.99172297353024,
        "alt_km": 438.5695169701594,
        "timestamp": "2025-12-06T18:50:08.954579+00:00",
        "meta_object_name": "STARLINK-35610",
        "meta_object_id": "2025-259G",
        "meta_epoch": "2025-12-06T08:00:01.999872",
        "meta_mean_motion": 15.42953368,
        "meta_eccentricity": 0.00012899,
        "meta_inclination": 43.0005,
        "meta_ra_of_asc_node": 84.8458,
        "meta_arg_of_pericenter": 277.686,
        "meta_mean_anomaly": 163.5824,
        "meta_ephemeris_type": 0,
        "meta_classification_type": "U",
        "meta_norad_cat_id": 66428,
        "meta_element_set_no": 999,
        "meta_rev_at_epoch": 525,
        "meta_bstar": -0.0563195,
        "meta_mean_motion_dot": -0.02270301,
        "meta_mean_motion_ddot": 0,
        "tle_line1": "1 66428U 25259G   25340.33335648 -.02270301  00000+0 -56320-1 0  9991",
        "tle_line2": "2 66428  43.0005  84.8458 0001289 277.6860 163.5824 15.42953368  5250"
      },
      "geometry": {
        "type": "Point",
        "coordinates": [
          145.99172297353024,
          39.88844303011527
        ]
      }
    },
    {
      "type": "Feature",
      "properties": {
        "norad_id": 66429,
        "name": "STARLINK-35533",
        "group": "last-30-days",
        "lat": 42.43759518562278,
        "lon": 161.07142959356983,
        "alt_km": 434.24838147440005,
        "timestamp": "2025-12-06T18:50:08.954589+00:00",
        "meta_object_name": "STARLINK-35533",
        "meta_object_id": "2025-259H",
        "meta_epoch": "2025-12-06T08:00:01.999872",
        "meta_mean_motion": 15.44146846,
        "meta_eccentricity": 0.0001514,
        "meta_inclination": 43.0009,
        "meta_ra_of_asc_node": 84.8214,
        "meta_arg_of_pericenter": 278.152,
        "meta_mean_anomaly": 172.6222,
        "meta_ephemeris_type": 0,
        "meta_classification_type": "U",
        "meta_norad_cat_id": 66429,
        "meta_element_set_no": 999,
        "meta_rev_at_epoch": 525,
        "meta_bstar": -0.048751163,
        "meta_mean_motion_dot": -0.02034235,
        "meta_mean_motion_ddot": 0,
        "tle_line1": "1 66429U 25259H   25340.33335648 -.02034235  00000+0 -48751-1 0  9995",
        "tle_line2": "2 66429  43.0009  84.8214 0001514 278.1520 172.6222 15.44146846  5255"
      },
      "geometry": {
        "type": "Point",
        "coordinates": [
          161.07142959356983,
          42.43759518562278
        ]
      }
    },
    {
      "type": "Feature",
      "properties": {
        "norad_id": 66430,
        "name": "STARLINK-35470",
        "group": "last-30-days",
        "lat": 42.9461906604728,
        "lon": 174.96763805254915,
        "alt_km": 430.1337534688573,
        "timestamp": "2025-12-06T18:50:08.954601+00:00",
        "meta_object_name": "STARLINK-35470",
        "meta_object_id": "2025-259J",
        "meta_epoch": "2025-12-06T08:00:01.999872",
        "meta_mean_motion": 15.45485835,
        "meta_eccentricity": 0.00012626,
        "meta_inclination": 43.0002,
        "meta_ra_of_asc_node": 84.803,
        "meta_arg_of_pericenter": 279.6252,
        "meta_mean_anomaly": 179.1969,
        "meta_ephemeris_type": 0,
        "meta_classification_type": "U",
        "meta_norad_cat_id": 66430,
        "meta_element_set_no": 999,
        "meta_rev_at_epoch": 525,
        "meta_bstar": -0.046834341,
        "meta_mean_motion_dot": -0.02045092,
        "meta_mean_motion_ddot": 0,
        "tle_line1": "1 66430U 25259J   25340.33335648 -.02045092  00000+0 -46834-1 0  9990",
        "tle_line2": "2 66430  43.0002  84.8030 0001262 279.6252 179.1969 15.45485835  5259"
      },
      "geometry": {
        "type": "Point",
        "coordinates": [
          174.96763805254915,
          42.9461906604728
        ]
      }
    }
  ]
}